start=new Date('2022-02-27T00:00:00.000Z').valueOf();
sats=[{"EPHEMERIS_TYPE":"0","TLE_LINE1":"1 48036U 21024BM  22057.80940991  .00001447  00000-0  11603-3 0  9996","REV_AT_EPOCH":"5278","RCS_SIZE":"LARGE","MEAN_ELEMENT_THEORY":"SGP4","ARG_OF_PERICENTER":"56.3853","LAUNCH_DATE":"2021-03-24","MEAN_MOTION":"15.06395938","COUNTRY_CODE":"US","REF_FRAME":"TEME","CLASSIFICATION_TYPE":"U","MEAN_MOTION_DDOT":"0.0000000000000","CENTER_NAME":"EARTH","EPOCH":"2022-02-26T19:25:33.016224","TLE_LINE2":"2 48036  53.0544  99.1508 0001577  56.3853 303.7287 15.06395938 52787","DECAY_DATE":null,"OBJECT_TYPE":"PAYLOAD","RA_OF_ASC_NODE":"99.1508","SITE":"AFETR","MEAN_MOTION_DOT":"0.00001447","SEMIMAJOR_AXIS":"6925.361","ELEMENT_SET_NO":"999","OBJECT_NAME":"STARLINK-2295","BSTAR":"0.00011603000000","MEAN_ANOMALY":"303.7287","PERIAPSIS":"546.134","PERIOD":"95.592","INCLINATION":"53.0544","TIME_SYSTEM":"UTC","GP_ID":"197160288","ECCENTRICITY":"0.00015770","NORAD_CAT_ID":"48036","FILE":"3327391","OBJECT_ID":"2021-024BM","APOAPSIS":"548.318"},{"CLASSIFICATION_TYPE":"U","MEAN_MOTION_DDOT":"0.0000000000000","CENTER_NAME":"EARTH","REF_FRAME":"TEME","COUNTRY_CODE":"US","MEAN_MOTION":"15.06391462","TLE_LINE2":"2 48092  53.0560 223.9426 0001351  90.1633 269.9511 15.06391462 51628","EPOCH":"2022-02-26T20:29:52.212192","TLE_LINE1":"1 48092U 21027A   22057.85407653  .00001496  00000-0  11930-3 0  9996","EPHEMERIS_TYPE":"0","ARG_OF_PERICENTER":"90.1633","LAUNCH_DATE":"2021-04-07","MEAN_ELEMENT_THEORY":"SGP4","RCS_SIZE":"LARGE","REV_AT_EPOCH":"5162","GP_ID":"197159293","TIME_SYSTEM":"UTC","APOAPSIS":"548.175","OBJECT_ID":"2021-027A","FILE":"3327391","ECCENTRICITY":"0.00013510","NORAD_CAT_ID":"48092","MEAN_MOTION_DOT":"0.00001496","SEMIMAJOR_AXIS":"6925.375","OBJECT_NAME":"STARLINK-2048","ELEMENT_SET_NO":"999","SITE":"AFETR","RA_OF_ASC_NODE":"223.9426","OBJECT_TYPE":"PAYLOAD","DECAY_DATE":null,"PERIOD":"95.593","INCLINATION":"53.0560","PERIAPSIS":"546.304","MEAN_ANOMALY":"269.9511","BSTAR":"0.00011930000000"},{"MEAN_MOTION":"15.06397675","REF_FRAME":"TEME","CENTER_NAME":"EARTH","MEAN_MOTION_DDOT":"0.0000000000000","CLASSIFICATION_TYPE":"U","COUNTRY_CODE":"US","EPOCH":"2022-02-26T21:22:16.762656","TLE_LINE2":"2 48093  53.0539 288.7917 0001525  78.9225 281.1935 15.06397675 50721","EPHEMERIS_TYPE":"0","TLE_LINE1":"1 48093U 21027B   22057.89047179  .00000238  00000-0  34903-4 0  9993","MEAN_ELEMENT_THEORY":"SGP4","REV_AT_EPOCH":"5072","RCS_SIZE":"LARGE","ARG_OF_PERICENTER":"78.9225","LAUNCH_DATE":"2021-04-07","GP_ID":"197159543","TIME_SYSTEM":"UTC","NORAD_CAT_ID":"48093","ECCENTRICITY":"0.00015250","OBJECT_ID":"2021-027B","FILE":"3327391","APOAPSIS":"548.277","OBJECT_TYPE":"PAYLOAD","RA_OF_ASC_NODE":"288.7917","DECAY_DATE":null,"SITE":"AFETR","SEMIMAJOR_AXIS":"6925.356","MEAN_MOTION_DOT":"0.00000238","ELEMENT_SET_NO":"999","OBJECT_NAME":"STARLINK-2404","BSTAR":"0.00003490300000","PERIOD":"95.592","INCLINATION":"53.0539","MEAN_ANOMALY":"281.1935","PERIAPSIS":"546.165"},{"MEAN_MOTION":"15.06404511","REF_FRAME":"TEME","CENTER_NAME":"EARTH","MEAN_MOTION_DDOT":"0.0000000000000","CLASSIFICATION_TYPE":"U","COUNTRY_CODE":"US","EPOCH":"2022-02-26T22:15:23.102208","TLE_LINE2":"2 48094  53.0551 298.6222 0001654  73.2666 286.8504 15.06404511 50592","EPHEMERIS_TYPE":"0","TLE_LINE1":"1 48094U 21027C   22057.92735072  .00000914  00000-0  80270-4 0  9993","MEAN_ELEMENT_THEORY":"SGP4","REV_AT_EPOCH":"5059","RCS_SIZE":"LARGE","LAUNCH_DATE":"2021-04-07","ARG_OF_PERICENTER":"73.2666","GP_ID":"197159794","TIME_SYSTEM":"UTC","NORAD_CAT_ID":"48094","ECCENTRICITY":"0.00016540","OBJECT_ID":"2021-027C","FILE":"3327391","APOAPSIS":"548.345","OBJECT_TYPE":"PAYLOAD","RA_OF_ASC_NODE":"298.6222","DECAY_DATE":null,"SITE":"AFETR","MEAN_MOTION_DOT":"0.00000914","SEMIMAJOR_AXIS":"6925.335","OBJECT_NAME":"STARLINK-2412","ELEMENT_SET_NO":"999","BSTAR":"0.00008027000000","INCLINATION":"53.0551","PERIOD":"95.592","MEAN_ANOMALY":"286.8504","PERIAPSIS":"546.054"},{"BSTAR":"0.00007694600000","INCLINATION":"53.0535","PERIOD":"95.593","MEAN_ANOMALY":"284.4691","PERIAPSIS":"546.242","OBJECT_TYPE":"PAYLOAD","RA_OF_ASC_NODE":"298.5954","DECAY_DATE":null,"SITE":"AFETR","MEAN_MOTION_DOT":"0.00000865","SEMIMAJOR_AXIS":"6925.375","OBJECT_NAME":"STARLINK-2414","ELEMENT_SET_NO":"999","NORAD_CAT_ID":"48095","ECCENTRICITY":"0.00014420","OBJECT_ID":"2021-027D","FILE":"3327391","APOAPSIS":"548.239","GP_ID":"197160541","TIME_SYSTEM":"UTC","MEAN_ELEMENT_THEORY":"SGP4","REV_AT_EPOCH":"5060","RCS_SIZE":"LARGE","ARG_OF_PERICENTER":"75.6458","LAUNCH_DATE":"2021-04-07","EPHEMERIS_TYPE":"0","TLE_LINE1":"1 48095U 21027D   22057.93473592  .00000865  00000-0  76946-4 0  9991","EPOCH":"2022-02-26T22:26:01.183488","TLE_LINE2":"2 48095  53.0535 298.5954 0001442  75.6458 284.4691 15.06391272 50608","MEAN_MOTION":"15.06391272","REF_FRAME":"TEME","CENTER_NAME":"EARTH","MEAN_MOTION_DDOT":"0.0000000000000","CLASSIFICATION_TYPE":"U","COUNTRY_CODE":"US"},{"APOAPSIS":"548.415","FILE":"3327391","OBJECT_ID":"2021-027E","ECCENTRICITY":"0.00016790","NORAD_CAT_ID":"48096","GP_ID":"197158793","TIME_SYSTEM":"UTC","PERIOD":"95.593","INCLINATION":"53.0531","PERIAPSIS":"546.089","MEAN_ANOMALY":"292.5014","BSTAR":"0.00024300000000","SEMIMAJOR_AXIS":"6925.387","OBJECT_NAME":"STARLINK-2417","MEAN_MOTION_DOT":"0.00003339","ELEMENT_SET_NO":"999","SITE":"AFETR","RA_OF_ASC_NODE":"298.7123","OBJECT_TYPE":"PAYLOAD","DECAY_DATE":null,"TLE_LINE2":"2 48096  53.0531 298.7123 0001679  67.6153 292.5014 15.06387499 50582","EPOCH":"2022-02-26T21:48:51.975360","MEAN_MOTION_DDOT":"0.0000000000000","CENTER_NAME":"EARTH","CLASSIFICATION_TYPE":"U","REF_FRAME":"TEME","COUNTRY_CODE":"US","MEAN_MOTION":"15.06387499","LAUNCH_DATE":"2021-04-07","ARG_OF_PERICENTER":"67.6153","MEAN_ELEMENT_THEORY":"SGP4","RCS_SIZE":"LARGE","REV_AT_EPOCH":"5058","TLE_LINE1":"1 48096U 21027E   22057.90893490  .00003339  00000-0  24300-3 0  9997","EPHEMERIS_TYPE":"0"},{"APOAPSIS":"548.161","FILE":"3327391","OBJECT_ID":"2021-027F","NORAD_CAT_ID":"48097","ECCENTRICITY":"0.00013710","GP_ID":"197159043","TIME_SYSTEM":"UTC","INCLINATION":"53.0555","PERIOD":"95.592","PERIAPSIS":"546.262","MEAN_ANOMALY":"271.0322","BSTAR":"0.00014957000000","SEMIMAJOR_AXIS":"6925.346","ELEMENT_SET_NO":"999","MEAN_MOTION_DOT":"0.00001947","OBJECT_NAME":"STARLINK-2418","SITE":"AFETR","RA_OF_ASC_NODE":"278.7975","OBJECT_TYPE":"PAYLOAD","DECAY_DATE":null,"TLE_LINE2":"2 48097  53.0555 278.7975 0001371  89.0824 271.0322 15.06400783 50861","EPOCH":"2022-02-26T21:19:39.453312","MEAN_MOTION_DDOT":"0.0000000000000","CLASSIFICATION_TYPE":"U","CENTER_NAME":"EARTH","REF_FRAME":"TEME","COUNTRY_CODE":"US","MEAN_MOTION":"15.06400783","ARG_OF_PERICENTER":"89.0824","LAUNCH_DATE":"2021-04-07","MEAN_ELEMENT_THEORY":"SGP4","RCS_SIZE":"LARGE","REV_AT_EPOCH":"5086","TLE_LINE1":"1 48097U 21027F   22057.88865108  .00001947  00000-0  14957-3 0  9990","EPHEMERIS_TYPE":"0"},{"COUNTRY_CODE":"US","CENTER_NAME":"EARTH","MEAN_MOTION_DDOT":"0.0000000000000","CLASSIFICATION_TYPE":"U","REF_FRAME":"TEME","MEAN_MOTION":"15.06394102","TLE_LINE2":"2 48098  53.0543 288.6073 0001464  72.4909 287.6239 15.06394102 50723","EPOCH":"2022-02-26T22:22:01.648128","TLE_LINE1":"1 48098U 21027G   22057.93196352  .00002277  00000-0  17174-3 0  9996","EPHEMERIS_TYPE":"0","LAUNCH_DATE":"2021-04-07","ARG_OF_PERICENTER":"72.4909","RCS_SIZE":"LARGE","REV_AT_EPOCH":"5072","MEAN_ELEMENT_THEORY":"SGP4","TIME_SYSTEM":"UTC","GP_ID":"197160295","APOAPSIS":"548.246","OBJECT_ID":"2021-027G","FILE":"3327391","ECCENTRICITY":"0.00014640","NORAD_CAT_ID":"48098","SEMIMAJOR_AXIS":"6925.367","MEAN_MOTION_DOT":"0.00002277","ELEMENT_SET_NO":"999","OBJECT_NAME":"STARLINK-2421","SITE":"AFETR","DECAY_DATE":null,"RA_OF_ASC_NODE":"288.6073","OBJECT_TYPE":"PAYLOAD","PERIAPSIS":"546.218","MEAN_ANOMALY":"287.6239","PERIOD":"95.593","INCLINATION":"53.0543","BSTAR":"0.00017174000000"},{"TLE_LINE1":"1 48099U 21027H   22057.91998078  .00000811  00000-0  73364-4 0  9996","EPHEMERIS_TYPE":"0","LAUNCH_DATE":"2021-04-07","ARG_OF_PERICENTER":"68.0298","MEAN_ELEMENT_THEORY":"SGP4","RCS_SIZE":"LARGE","REV_AT_EPOCH":"5058","CENTER_NAME":"EARTH","MEAN_MOTION_DDOT":"0.0000000000000","CLASSIFICATION_TYPE":"U","REF_FRAME":"TEME","COUNTRY_CODE":"US","MEAN_MOTION":"15.06396518","TLE_LINE2":"2 48099  53.0561 298.6511 0001503  68.0298 292.0851 15.06396518 50585","EPOCH":"2022-02-26T22:04:46.339392","MEAN_MOTION_DOT":"0.00000811","SEMIMAJOR_AXIS":"6925.359","ELEMENT_SET_NO":"999","OBJECT_NAME":"STARLINK-2428","SITE":"AFETR","RA_OF_ASC_NODE":"298.6511","OBJECT_TYPE":"PAYLOAD","DECAY_DATE":null,"PERIOD":"95.592","INCLINATION":"53.0561","PERIAPSIS":"546.183","MEAN_ANOMALY":"292.0851","BSTAR":"0.00007336400000","GP_ID":"197160041","TIME_SYSTEM":"UTC","APOAPSIS":"548.265","OBJECT_ID":"2021-027H","FILE":"3327391","NORAD_CAT_ID":"48099","ECCENTRICITY":"0.00015030"},{"GP_ID":"197159294","TIME_SYSTEM":"UTC","APOAPSIS":"548.489","FILE":"3327391","OBJECT_ID":"2021-027J","ECCENTRICITY":"0.00017940","NORAD_CAT_ID":"48100","ELEMENT_SET_NO":"999","SEMIMAJOR_AXIS":"6925.382","MEAN_MOTION_DOT":"0.00000343","OBJECT_NAME":"STARLINK-2430","SITE":"AFETR","RA_OF_ASC_NODE":"278.8289","OBJECT_TYPE":"PAYLOAD","DECAY_DATE":null,"INCLINATION":"53.0537","PERIOD":"95.593","PERIAPSIS":"546.004","MEAN_ANOMALY":"279.5924","BSTAR":"0.00004192400000","MEAN_MOTION_DDOT":"0.0000000000000","CLASSIFICATION_TYPE":"U","CENTER_NAME":"EARTH","REF_FRAME":"TEME","COUNTRY_CODE":"US","MEAN_MOTION":"15.06389157","TLE_LINE2":"2 48100  53.0537 278.8289 0001794  80.5268 279.5924 15.06389157 50864","EPOCH":"2022-02-26T21:09:03.139776","TLE_LINE1":"1 48100U 21027J   22057.88128634  .00000343  00000-0  41924-4 0  9995","EPHEMERIS_TYPE":"0","ARG_OF_PERICENTER":"80.5268","LAUNCH_DATE":"2021-04-07","MEAN_ELEMENT_THEORY":"SGP4","RCS_SIZE":"LARGE","REV_AT_EPOCH":"5086"}];
